{"type": "FeatureCollection", "features": [ {"type": "Feature", "properties": {"norad_id": 31383, "name": "FENGYUN 1C DEB", "group": "fengyun-1c-debris", "lat": 16.084695098780053, "lon": 44.74787049733609, "alt_km": 829.6840433459138, "timestamp": "2025-12-11T10:53:16.169691+00:00", "meta": {"OBJECT_NAME": "FENGYUN 1C DEB", "OBJECT_ID": "1999-025BSP", "EPOCH": "2025-12-09T02:34:44.796288", "MEAN_MOTION": 14.05688126, "ECCENTRICITY": 0.01079363, "INCLINATION": 99.068, "RA_OF_ASC_NODE": 45.0398, "ARG_OF_PERICENTER": 327.5363, "MEAN_ANOMALY": 61.476, "EPHEMERIS_TYPE": 0, "CLASSIFICATION_TYPE": "U", "NORAD_CAT_ID": 31383, "ELEMENT_SET_NO": 999, "REV_AT_EPOCH": 95318, "BSTAR": 0.0010265056, "MEAN_MOTION_DOT": 1.718e-05, "MEAN_MOTION_DDOT": 0}, "tle": {"line1": "1 31383U 99025BSP 25343.10746292  .00001718  00000+0  10265-2 0  9993", "line2": "2 31383  99.0680  45.0398 0107936 327.5363  61.4760 14.05688126953187"}}, "geometry": {"type": "Point", "coordinates": [44.74787049733609, 16.084695098780053]}}, {"type": "Feature", "properties": {"norad_id": 31384, "name": "FENGYUN 1C DEB", "group": "fengyun-1c-debris", "lat": 12.479408015516857, "lon": 133.52696282389428, "alt_km": 1104.3442835582664, "timestamp": "2025-12-11T10:53:16.169702+00:00", "meta": {"OBJECT_NAME": "FENGYUN 1C DEB", "OBJECT_ID": "1999-025BSQ", "EPOCH": "2025-12-08T04:13:31.416384", "MEAN_MOTION": 13.86050931, "ECCENTRICITY": 0.04406196, "INCLINATION": 98.4582, "RA_OF_ASC_NODE": 308.6672, "ARG_OF_PERICENTER": 54.2034, "MEAN_ANOMALY": 322.9436, "EPHEMERIS_TYPE": 0, "CLASSIFICATION_TYPE": "U", "NORAD_CAT_ID": 31384, "ELEMENT_SET_NO": 999, "REV_AT_EPOCH": 92961, "BSTAR": 0.0028698607, "MEAN_MOTION_DOT": 7.083e-05, "MEAN_MOTION_DDOT": 0}, "tle": {"line1": "1 31384U 99025BSQ 25342.17605806  .00007083  00000+0  28699-2 0  9996", "line2": "2 31384  98.4582 308.6672 0440619  54.2034 322.9436 13.86050931929613"}}, "geometry": {"type": "Point", "coordinates": [133.52696282389428, 12.479408015516857]}}, {"type": "Feature", "properties": {"norad_id": 31385, "name": "FENGYUN 1C DEB", "group": "fengyun-1c-debris", "lat": 46.9763615566178, "lon": 65.81141450092109, "alt_km": 646.9785535796736, "timestamp": "2025-12-11T10:53:16.169714+00:00", "meta": {"OBJECT_NAME": "FENGYUN 1C DEB", "OBJECT_ID": "1999-025BSR", "EPOCH": "2025-12-08T00:18:35.726400", "MEAN_MOTION": 14.43988949, "ECCENTRICITY": 0.01348196, "INCLINATION": 98.9544, "RA_OF_ASC_NODE": 71.9176, "ARG_OF_PERICENTER": 69.5562, "MEAN_ANOMALY": 102.5231, "EPHEMERIS_TYPE": 0, "CLASSIFICATION_TYPE": "U", "NORAD_CAT_ID": 31385, "ELEMENT_SET_NO": 999, "REV_AT_EPOCH": 98546, "BSTAR": 0.0002381553, "MEAN_MOTION_DOT": 8.55e-06, "MEAN_MOTION_DDOT": 0}, "tle": {"line1": "1 31385U 99025BSR 25342.01291350  .00000855  00000+0  23816-3 0  9992", "line2": "2 31385  98.9544  71.9176 0134819  69.5562 102.5231 14.43988949985466"}}, "geometry": {"type": "Point", "coordinates": [65.81141450092109, 46.9763615566178]}}, {"type": "Feature", "properties": {"norad_id": 31386, "name": "FENGYUN 1C DEB", "group": "fengyun-1c-debris", "lat": 12.124559342792946, "lon": -1.3485563860462912, "alt_km": 927.0307116365511, "timestamp": "2025-12-11T10:53:16.169724+00:00", "meta": {"OBJECT_NAME": "FENGYUN 1C DEB", "OBJECT_ID": "1999-025BSS", "EPOCH": "2025-12-09T12:03:04.178016", "MEAN_MOTION": 13.86004786, "ECCENTRICITY": 0.01975639, "INCLINATION": 98.4411, "RA_OF_ASC_NODE": 358.7188, "ARG_OF_PERICENTER": 293.251, "MEAN_ANOMALY": 64.7958, "EPHEMERIS_TYPE": 0, "CLASSIFICATION_TYPE": "U", "NORAD_CAT_ID": 31386, "ELEMENT_SET_NO": 999, "REV_AT_EPOCH": 93817, "BSTAR": 0.0030328716, "MEAN_MOTION_DOT": 4.028e-05, "MEAN_MOTION_DDOT": 0}, "tle": {"line1": "1 31386U 99025BSS 25343.50213169  .00004028  00000+0  30329-2 0  9992", "line2": "2 31386  98.4411 358.7188 0197563 293.2510  64.7958 13.86004786938173"}}, "geometry": {"type": "Point", "coordinates": [-1.3485563860462912, 12.124559342792946]}}, {"type": "Feature", "properties": {"norad_id": 31387, "name": "FENGYUN 1C DEB", "group": "fengyun-1c-debris", "lat": -62.6313737630373, "lon": 25.702564618549914, "alt_km": 788.5925535837641, "timestamp": "2025-12-11T10:53:16.169737+00:00", "meta": {"OBJECT_NAME": "FENGYUN 1C DEB", "OBJECT_ID": "1999-025BST", "EPOCH": "2025-12-10T21:51:30.094272", "MEAN_MOTION": 14.13566666, "ECCENTRICITY": 0.0241653, "INCLINATION": 99.1683, "RA_OF_ASC_NODE": 223.3244, "ARG_OF_PERICENTER": 176.3958, "MEAN_ANOMALY": 183.9027, "EPHEMERIS_TYPE": 0, "CLASSIFICATION_TYPE": "U", "NORAD_CAT_ID": 31387, "ELEMENT_SET_NO": 999, "REV_AT_EPOCH": 96271, "BSTAR": 0.00029674, "MEAN_MOTION_DOT": 6.9e-06, "MEAN_MOTION_DDOT": 0}, "tle": {"line1": "1 31387U 99025BST 25344.91076498  .00000690  00000+0  29674-3 0  9994", "line2": "2 31387  99.1683 223.3244 0241653 176.3958 183.9027 14.13566666962719"}}, "geometry": {"type": "Point", "coordinates": [25.702564618549914, -62.6313737630373]}}, {"type": "Feature", "properties": {"norad_id": 31388, "name": "FENGYUN 1C DEB", "group": "fengyun-1c-debris", "lat": 49.233537170746686, "lon": 163.80654783621483, "alt_km": 854.7005052600416, "timestamp": "2025-12-11T10:53:16.169750+00:00", "meta": {"OBJECT_NAME": "FENGYUN 1C DEB", "OBJECT_ID": "1999-025BSU", "EPOCH": "2025-12-10T22:28:10.240896", "MEAN_MOTION": 14.07424902, "ECCENTRICITY": 0.0046406, "INCLINATION": 98.8049, "RA_OF_ASC_NODE": 332.9458, "ARG_OF_PERICENTER": 206.1162, "MEAN_ANOMALY": 184.0725, "EPHEMERIS_TYPE": 0, "CLASSIFICATION_TYPE": "U", "NORAD_CAT_ID": 31388, "ELEMENT_SET_NO": 999, "REV_AT_EPOCH": 96416, "BSTAR": 0.00012078, "MEAN_MOTION_DOT": 1.62e-06, "MEAN_MOTION_DDOT": 0}, "tle": {"line1": "1 31388U 99025BSU 25344.93622964  .00000162  00000+0  12078-3 0  9996", "line2": "2 31388  98.8049 332.9458 0046406 206.1162 184.0725 14.07424902964161"}}, "geometry": {"type": "Point", "coordinates": [163.80654783621483, 49.233537170746686]}}, {"type": "Feature", "properties": {"norad_id": 31389, "name": "FENGYUN 1C DEB", "group": "fengyun-1c-debris", "lat": 10.153050374850082, "lon": -27.637445444046097, "alt_km": 672.8193806293093, "timestamp": "2025-12-11T10:53:16.169760+00:00", "meta": {"OBJECT_NAME": "FENGYUN 1C DEB", "OBJECT_ID": "1999-025BSV", "EPOCH": "2025-12-10T09:35:39.371136", "MEAN_MOTION": 14.60827561, "ECCENTRICITY": 0.00292291, "INCLINATION": 99.0422, "RA_OF_ASC_NODE": 149.5784, "ARG_OF_PERICENTER": 196.1894, "MEAN_ANOMALY": 194.1723, "EPHEMERIS_TYPE": 0, "CLASSIFICATION_TYPE": "U", "NORAD_CAT_ID": 31389, "ELEMENT_SET_NO": 999, "REV_AT_EPOCH": 96463, "BSTAR": 0.0079063939, "MEAN_MOTION_DOT": 0.00039031, "MEAN_MOTION_DDOT": 0}, "tle": {"line1": "1 31389U 99025BSV 25344.39976124  .00039031  00000+0  79064-2 0  9991", "line2": "2 31389  99.0422 149.5784 0029229 196.1894 194.1723 14.60827561964637"}}, "geometry": {"type": "Point", "coordinates": [-27.637445444046097, 10.153050374850082]}}, {"type": "Feature", "properties": {"norad_id": 31410, "name": "FENGYUN 1C DEB", "group": "fengyun-1c-debris", "lat": -18.917199773303274, "lon": 150.0103339942943, "alt_km": 697.1549736538145, "timestamp": "2025-12-11T10:53:16.169771+00:00", "meta": {"OBJECT_NAME": "FENGYUN 1C DEB", "OBJECT_ID": "1999-025BSW", "EPOCH": "2025-12-10T10:10:24.605760", "MEAN_MOTION": 14.44743605, "ECCENTRICITY": 0.01105862, "INCLINATION": 98.8363, "RA_OF_ASC_NODE": 145.8839, "ARG_OF_PERICENTER": 293.651, "MEAN_ANOMALY": 93.5214, "EPHEMERIS_TYPE": 0, "CLASSIFICATION_TYPE": "U", "NORAD_CAT_ID": 31410, "ELEMENT_SET_NO": 999, "REV_AT_EPOCH": 97718, "BSTAR": 0.0012581489, "MEAN_MOTION_DOT": 4.656e-05, "MEAN_MOTION_DDOT": 0}, "tle": {"line1": "1 31410U 99025BSW 25344.42389590  .00004656  00000+0  12581-2 0  9991", "line2": "2 31410  98.8363 145.8839 0110586 293.6510  93.5214 14.44743605977187"}}, "geometry": {"type": "Point", "coordinates": [150.0103339942943, -18.917199773303274]}}, {"type": "Feature", "properties": {"norad_id": 31411, "name": "FENGYUN 1C DEB", "group": "fengyun-1c-debris", "lat": 7.31334953255799, "lon": -132.13470168764024, "alt_km": 794.8527108116086, "timestamp": "2025-12-11T10:53:16.169781+00:00", "meta": {"OBJECT_NAME": "FENGYUN 1C DEB", "OBJECT_ID": "1999-025BSX", "EPOCH": "2025-12-10T10:35:57.312384", "MEAN_MOTION": 14.27980083, "ECCENTRICITY": 0.01006223, "INCLINATION": 98.6693, "RA_OF_ASC_NODE": 45.7388, "ARG_OF_PERICENTER": 261.6101, "MEAN_ANOMALY": 112.4364, "EPHEMERIS_TYPE": 0, "CLASSIFICATION_TYPE": "U", "NORAD_CAT_ID": 31411, "ELEMENT_SET_NO": 999, "REV_AT_EPOCH": 94447, "BSTAR": 0.00075860165, "MEAN_MOTION_DOT": 1.941e-05, "MEAN_MOTION_DDOT": 0}, "tle": {"line1": "1 31411U 99025BSX 25344.44163556  .00001941  00000+0  75860-3 0  9990", "line2": "2 31411  98.6693  45.7388 0100622 261.6101 112.4364 14.27980083944477"}}, "geometry": {"type": "Point", "coordinates": [-132.13470168764024, 7.31334953255799]}}, {"type": "Feature", "properties": {"norad_id": 31412, "name": "FENGYUN 1C DEB", "group": "fengyun-1c-debris", "lat": -56.218300519243684, "lon": 96.42366573329672, "alt_km": 878.859467045434, "timestamp": "2025-12-11T10:53:16.169792+00:00", "meta": {"OBJECT_NAME": "FENGYUN 1C DEB", "OBJECT_ID": "1999-025BSY", "EPOCH": "2025-12-08T06:48:54.761760", "MEAN_MOTION": 14.09790049, "ECCENTRICITY": 0.00838716, "INCLINATION": 98.5478, "RA_OF_ASC_NODE": 286.4049, "ARG_OF_PERICENTER": 347.8891, "MEAN_ANOMALY": 12.0263, "EPHEMERIS_TYPE": 0, "CLASSIFICATION_TYPE": "U", "NORAD_CAT_ID": 31412, "ELEMENT_SET_NO": 999, "REV_AT_EPOCH": 60929, "BSTAR": 0.0032161127, "MEAN_MOTION_DOT": 5.801e-05, "MEAN_MOTION_DDOT": 0}, "tle": {"line1": "1 31412U 99025BSY 25342.28396715  .00005801  00000+0  32161-2 0  9991", "line2": "2 31412  98.5478 286.4049 0083871 347.8891  12.0263 14.09790049609297"}}, "geometry": {"type": "Point", "coordinates": [96.42366573329672, -56.218300519243684]}}]}